{"fetched_at":"2026-03-29T16:36:15Z","count":15609,"tles":[{"name":"STARLINK-1802","line1":"1 46702U 20073AJ  26087.84312122  .00048452  00000+0  15952-2 0  9993","line2":"2 46702  53.1602 128.0671 0001763  78.0408 282.0790 15.31042711300418","category":"Starlink"}]}