{
  "norad_id": 46702,
  "name": "STARLINK-1802",
  "history": [
    {
      "epoch": "2026-03-28T20:14:05.673408Z",
      "apogee_km": 473.9078430375248,
      "perigee_km": 471.49223789705593,
      "latitude_deg": -5.3409969914695796e-05,
      "longitude_deg": -1.7143330915186583,
      "height_km": 473.34756643263745,
      "semi_major_axis_km": 6850.8370404672905,
      "eccentricity": 0.0001763,
      "inclination_deg": 53.1602,
      "raan_deg": 128.0671,
      "arg_perigee_deg": 78.0408,
      "mean_anomaly_deg": 282.079,
      "mean_motion_rev_day": 15.31042711
    }
  ]
}